NORAD_CAT_ID,OBJECT_NAME,OBJECT_TYPE,EPOCH,MEAN_MOTION,ECCENTRICITY,INCLINATION,RA_OF_ASC_NODE,ARG_OF_PERICENTER,MEAN_ANOMALY,BSTAR,MEAN_MOTION_DOT,MEAN_MOTION_DDOT,TLE_LINE0,TLE_LINE1,TLE_LINE2,SEMIMAJOR_AXIS,PERIOD,APOGEE,PERIGEE,DECAYED
52603.0,STARLINK-4016,PAYLOAD,2024-08-13 06:36:30,15.08818415,0.0002337,53.213,333.2893,81.6355,278.4902,-0.0003939,-6.548e-05,0.0,0 STARLINK-4016,1 52603U 22052F   24226.27535215 -.00006548  00000-0 -39390-3 0  9995,2 52603  53.2130 333.2893 0002337  81.6355 278.4902 15.08818415124668,6917.946,95.439,541.428,538.195,0.0
52603.0,STARLINK-4016,PAYLOAD,2024-08-13 17:44:13,15.08812604,0.0002402,53.2112,331.2058,79.0642,281.062,-0.00040801,-6.771e-05,0.0,0 STARLINK-4016,1 52603U 22052F   24226.73904035 -.00006771  00000-0 -40801-3 0  9993,2 52603  53.2112 331.2058 0002402  79.0642 281.0620 15.08812604125169,6917.964,95.439,541.491,538.167,0.0
52603.0,STARLINK-4016,PAYLOAD,2024-08-14 00:05:44,15.08835372,3.13e-05,53.2201,330.0175,319.1221,40.9747,-0.00012984,-2.353e-05,0.0,0 STARLINK-4016,1 52603U 22052F   24227.00398569 -.00002353  00000-0 -12984-3 0  9996,2 52603  53.2201 330.0175 0000313 319.1221  40.9747 15.08835372124770,6917.895,95.438,539.976,539.543,0.0
52603.0,STARLINK-4016,PAYLOAD,2024-08-14 14:24:12,15.08848809,9.55e-05,53.2175,327.3402,53.5133,306.5947,0.00027694,4.124e-05,0.0,0 STARLINK-4016,1 52603U 22052F   24227.60015021  .00004124  00000-0  27694-3 0  9991,2 52603  53.2175 327.3402 0000955  53.5133 306.5947 15.08848809125295,6917.853,95.437,540.379,539.058,0.0
52603.0,STARLINK-4016,PAYLOAD,2024-08-14 23:56:31,15.08855951,7.9e-05,53.2173,325.5552,57.0831,303.0237,0.00023035,3.382e-05,0.0,0 STARLINK-4016,1 52603U 22052F   24227.99758437  .00003382  00000-0  23035-3 0  9998,2 52603  53.2173 325.5552 0000790  57.0831 303.0237 15.08855951124929,6917.832,95.437,540.243,539.15,0.0
52603.0,STARLINK-4016,PAYLOAD,2024-08-15 12:39:37,15.08836981,0.0001901,53.2165,323.18,77.3799,282.7406,0.0002504,3.699e-05,0.0,0 STARLINK-4016,1 52603U 22052F   24228.52751768  .00003699  00000-0  25040-3 0  9997,2 52603  53.2165 323.1800 0001901  77.3799 282.7406 15.08836981125433,6917.89,95.438,541.07,538.44,0.0
52603.0,STARLINK-4016,PAYLOAD,2024-08-15 23:47:19,15.08844587,0.0001802,53.2179,321.0977,76.5677,283.5516,0.00019211,2.771e-05,0.0,0 STARLINK-4016,1 52603U 22052F   24228.99119365  .00002771  00000-0  19211-3 0  9992,2 52603  53.2179 321.0977 0001802  76.5677 283.5516 15.08844587125506,6917.866,95.437,540.978,538.485,0.0
52603.0,STARLINK-4016,PAYLOAD,2024-08-17 05:59:38,15.0884426,0.0001922,53.2165,315.4483,82.6481,277.473,0.00012654,1.727e-05,0.0,0 STARLINK-4016,1 52603U 22052F   24230.24975357  .00001727  00000-0  12654-3 0  9998,2 52603  53.2165 315.4483 0001922  82.6481 277.4730 15.08844260125265,6917.867,95.437,541.062,538.403,0.0
52603.0,STARLINK-4016,PAYLOAD,2024-08-18 05:50:25,15.08842325,0.0001221,53.2173,310.9852,80.7653,279.3477,8.2777e-05,1.03e-05,0.0,0 STARLINK-4016,1 52603U 22052F   24231.24335295  .00001030  00000-0  82777-4 0  9991,2 52603  53.2173 310.9852 0001221  80.7653 279.3477 15.08842325125849,6917.873,95.437,540.583,538.894,0.0
52603.0,STARLINK-4016,PAYLOAD,2024-08-18 10:36:34,15.08845409,0.0001651,53.2168,310.091,103.9813,256.1363,0.00017049,2.427e-05,0.0,0 STARLINK-4016,1 52603U 22052F   24231.44207169  .00002427  00000-0  17049-3 0  9991,2 52603  53.2168 310.0910 0001651 103.9813 256.1363 15.08845409125441,6917.864,95.437,540.871,538.587,0.0
52603.0,STARLINK-4016,PAYLOAD,2024-08-19 12:02:46,15.08824229,0.0001665,53.2171,305.339,113.617,246.4997,-3.7882e-05,-8.91e-06,0.0,0 STARLINK-4016,1 52603U 22052F   24232.50192375 -.00000891  00000-0 -37882-4 0  9994,2 52603  53.2171 305.3390 0001665 113.6170 246.4997 15.08824229125603,6917.929,95.439,540.945,538.642,0.0
52603.0,STARLINK-4016,PAYLOAD,2024-08-20 10:18:09,15.08843675,0.0001575,53.2167,301.174,106.9859,253.1306,0.00011308,1.512e-05,0.0,0 STARLINK-4016,1 52603U 22052F   24233.42927546  .00001512  00000-0  11308-3 0  9995,2 52603  53.2167 301.1740 0001575 106.9859 253.1306 15.08843675125740,6917.869,95.437,540.824,538.645,0.0
52603.0,STARLINK-4016,PAYLOAD,2024-08-21 11:44:19,15.08838142,0.0001299,53.2152,296.4134,94.306,265.808,0.00014902,2.084e-05,0.0,0 STARLINK-4016,1 52603U 22052F   24234.48911996  .00002084  00000-0  14902-3 0  9992,2 52603  53.2152 296.4134 0001299  94.3060 265.8080 15.08838142125904,6917.886,95.438,540.65,538.852,0.0
